STARLINK-2361           
1 47901U 21021AT  26068.71122616 -.00005554  00000+0 -17566-3 0  9993
2 47901  53.1601 255.2953 0001353  53.4820 306.6305 15.30175875276420
LIZZIESAT-2 (LS-2)      
1 62383U 24247G   26068.49140277  .00009388  00000+0  34517-3 0  9997
2 62383  44.9909 117.0823 0004092 327.5136  32.5495 15.28222796 67716
